2023-104A               
1 57424U 23104A   26065.78279804  .00015492  00000+0  48200-3 0  9993
2 57424  97.2792 135.5625 0009333 122.1915 238.0234 15.33350758146346
STARLINK-30430          
1 57849U 23141K   26068.86262549 -.00000755  00000+0 -13382-4 0  9997
2 57849  53.1600 283.3817 0000721 100.9132 259.1950 15.30184601140351
